[{"OBJECT_NAME":"STARLINK-5297","OBJECT_ID":"2022-141B","EPOCH":"2025-08-01T08:43:59.645856","MEAN_MOTION":15.0883563,"ECCENTRICITY":0.0001144,"INCLINATION":53.2176,"RA_OF_ASC_NODE":283.3386,"ARG_OF_PERICENTER":88.1838,"MEAN_ANOMALY":271.9286,"EPHEMERIS_TYPE":0,"CLASSIFICATION_TYPE":"U","NORAD_CAT_ID":54158,"ELEMENT_SET_NO":999,"REV_AT_EPOCH":15245,"BSTAR":2.7257e-5,"MEAN_MOTION_DOT":1.46e-6,"MEAN_MOTION_DDOT":0},{"OBJECT_NAME":"STARLINK-5294","OBJECT_ID":"2022-141C","EPOCH":"2025-08-01T10:14:03.139008","MEAN_MOTION":15.08851981,"ECCENTRICITY":0.0001107,"INCLINATION":53.2171,"RA_OF_ASC_NODE":283.0252,"ARG_OF_PERICENTER":91.7676,"MEAN_ANOMALY":268.3443,"EPHEMERIS_TYPE":0,"CLASSIFICATION_TYPE":"U","NORAD_CAT_ID":54159,"ELEMENT_SET_NO":999,"REV_AT_EPOCH":15246,"BSTAR":0.0001645,"MEAN_MOTION_DOT":2.332e-5,"MEAN_MOTION_DDOT":0},{"OBJECT_NAME":"STARLINK-5233","OBJECT_ID":"2022-141D","EPOCH":"2025-08-01T08:10:11.182944","MEAN_MOTION":15.08837495,"ECCENTRICITY":0.000116,"INCLINATION":53.217,"RA_OF_ASC_NODE":238.278,"ARG_OF_PERICENTER":78.6987,"MEAN_ANOMALY":281.4136,"EPHEMERIS_TYPE":0,"CLASSIFICATION_TYPE":"U","NORAD_CAT_ID":54160,"ELEMENT_SET_NO":999,"REV_AT_EPOCH":15308,"BSTAR":-1.4697e-5,"MEAN_MOTION_DOT":-5.22e-6,"MEAN_MOTION_DDOT":0},{"OBJECT_NAME":"STARLINK-5269","OBJECT_ID":"2022-141E","EPOCH":"2025-08-01T08:40:04.458144","MEAN_MOTION":15.08833652,"ECCENTRICITY":0.0001088,"INCLINATION":53.2182,"RA_OF_ASC_NODE":283.3212,"ARG_OF_PERICENTER":86.6076,"MEAN_ANOMALY":273.504,"EPHEMERIS_TYPE":0,"CLASSIFICATION_TYPE":"U","NORAD_CAT_ID":54161,"ELEMENT_SET_NO":999,"REV_AT_EPOCH":15245,"BSTAR":2.8097e-5,"MEAN_MOTION_DOT":1.59e-6,"MEAN_MOTION_DDOT":0},{"OBJECT_NAME":"STARLINK-5273","OBJECT_ID":"2022-141F","EPOCH":"2025-08-01T10:03:27.968544","MEAN_MOTION":15.08834778,"ECCENTRICITY":0.0001129,"INCLINATION":53.2176,"RA_OF_ASC_NODE":282.9721,"ARG_OF_PERICENTER":87.4891,"MEAN_ANOMALY":272.6231,"EPHEMERIS_TYPE":0,"CLASSIFICATION_TYPE":"U","NORAD_CAT_ID":54162,"ELEMENT_SET_NO":999,"REV_AT_EPOCH":15246,"BSTAR":3.1905e-5,"MEAN_MOTION_DOT":2.2e-6,"MEAN_MOTION_DDOT":0},{"OBJECT_NAME":"STARLINK-5161","OBJECT_ID":"2022-141G","EPOCH":"2025-08-01T08:45:19.579680","MEAN_MOTION":15.08839517,"ECCENTRICITY":9.43e-5,"INCLINATION":53.2172,"RA_OF_ASC_NODE":273.3691,"ARG_OF_PERICENTER":89.8173,"MEAN_ANOMALY":270.2927,"EPHEMERIS_TYPE":0,"CLASSIFICATION_TYPE":"U","NORAD_CAT_ID":54163,"ELEMENT_SET_NO":999,"REV_AT_EPOCH":15259,"BSTAR":2.0273e-5,"MEAN_MOTION_DOT":3.5e-7,"MEAN_MOTION_DDOT":0},{"OBJECT_NAME":"STARLINK-5278","OBJECT_ID":"2022-141H","EPOCH":"2025-08-01T08:50:37.758048","MEAN_MOTION":15.08840656,"ECCENTRICITY":0.0001207,"INCLINATION":53.2174,"RA_OF_ASC_NODE":273.3925,"ARG_OF_PERICENTER":82.2096,"MEAN_ANOMALY":277.9033,"EPHEMERIS_TYPE":0,"CLASSIFICATION_TYPE":"U","NORAD_CAT_ID":54164,"ELEMENT_SET_NO":999,"REV_AT_EPOCH":15259,"BSTAR":1.8243e-5,"MEAN_MOTION_DOT":3.0e-8,"MEAN_MOTION_DDOT":0},{"OBJECT_NAME":"STARLINK-5279","OBJECT_ID":"2022-141J","EPOCH":"2025-08-01T11:33:32.311872","MEAN_MOTION":15.08838144,"ECCENTRICITY":0.0001179,"INCLINATION":53.2178,"RA_OF_ASC_NODE":282.6517,"ARG_OF_PERICENTER":89.3198,"MEAN_ANOMALY":270.7929,"EPHEMERIS_TYPE":0,"CLASSIFICATION_TYPE":"U","NORAD_CAT_ID":54165,"ELEMENT_SET_NO":999,"REV_AT_EPOCH":15247,"BSTAR":2.0449e-5,"MEAN_MOTION_DOT":3.8e-7,"MEAN_MOTION_DDOT":0},{"OBJECT_NAME":"STARLINK-5280","OBJECT_ID":"2022-141K","EPOCH":"2025-08-01T08:40:01.926624","MEAN_MOTION":15.0883328,"ECCENTRICITY":0.0001143,"INCLINATION":53.2183,"RA_OF_ASC_NODE":273.3463,"ARG_OF_PERICENTER":85.9127,"MEAN_ANOMALY":274.1996,"EPHEMERIS_TYPE":0,"CLASSIFICATION_TYPE":"U","NORAD_CAT_ID":54166,"ELEMENT_SET_NO":999,"REV_AT_EPOCH":15259,"BSTAR":-2.0781e-5,"MEAN_MOTION_DOT":-6.18e-6,"MEAN_MOTION_DDOT":0},{"OBJECT_NAME":"STARLINK-5243","OBJECT_ID":"2022-141L","EPOCH":"2025-08-01T11:07:00.313248","MEAN_MOTION":15.08842578,"ECCENTRICITY":0.000125,"INCLINATION":53.2178,"RA_OF_ASC_NODE":282.5376,"ARG_OF_PERICENTER":85.763,"MEAN_ANOMALY":274.3505,"EPHEMERIS_TYPE":0,"CLASSIFICATION_TYPE":"U","NORAD_CAT_ID":54167,"ELEMENT_SET_NO":999,"REV_AT_EPOCH":15247,"BSTAR":2.7405e-5,"MEAN_MOTION_DOT":1.48e-6,"MEAN_MOTION_DDOT":0},{"OBJECT_NAME":"STARLINK-5245","OBJECT_ID":"2022-141M","EPOCH":"2025-08-01T11:45:28.908288","MEAN_MOTION":15.08841174,"ECCENTRICITY":0.0001205,"INCLINATION":53.2176,"RA_OF_ASC_NODE":272.7299,"ARG_OF_PERICENTER":84.9312,"MEAN_ANOMALY":275.1818,"EPHEMERIS_TYPE":0,"CLASSIFICATION_TYPE":"U","NORAD_CAT_ID":54168,"ELEMENT_SET_NO":999,"REV_AT_EPOCH":15261,"BSTAR":1.4353e-5,"MEAN_MOTION_DOT":-5.9e-7,"MEAN_MOTION_DDOT":0},{"OBJECT_NAME":"STARLINK-5282","OBJECT_ID":"2022-141N","EPOCH":"2025-08-01T08:55:48.592416","MEAN_MOTION":15.08839234,"ECCENTRICITY":0.0001113,"INCLINATION":53.2167,"RA_OF_ASC_NODE":272.7148,"ARG_OF_PERICENTER":85.6557,"MEAN_ANOMALY":274.4562,"EPHEMERIS_TYPE":0,"CLASSIFICATION_TYPE":"U","NORAD_CAT_ID":54169,"ELEMENT_SET_NO":999,"REV_AT_EPOCH":15260,"BSTAR":6.9688e-6,"MEAN_MOTION_DOT":-1.77e-6,"MEAN_MOTION_DDOT":0},{"OBJECT_NAME":"STARLINK-5155","OBJECT_ID":"2022-141P","EPOCH":"2025-08-01T11:40:10.573536","MEAN_MOTION":15.08839367,"ECCENTRICITY":0.0001121,"INCLINATION":53.217,"RA_OF_ASC_NODE":272.7065,"ARG_OF_PERICENTER":80.9359,"MEAN_ANOMALY":279.1759,"EPHEMERIS_TYPE":0,"CLASSIFICATION_TYPE":"U","NORAD_CAT_ID":54170,"ELEMENT_SET_NO":999,"REV_AT_EPOCH":15261,"BSTAR":6.1996e-5,"MEAN_MOTION_DOT":6.99e-6,"MEAN_MOTION_DDOT":0},{"OBJECT_NAME":"STARLINK-5117","OBJECT_ID":"2022-141R","EPOCH":"2025-08-01T11:29:34.266048","MEAN_MOTION":15.08836811,"ECCENTRICITY":0.0001175,"INCLINATION":53.2177,"RA_OF_ASC_NODE":272.6609,"ARG_OF_PERICENTER":90.3119,"MEAN_ANOMALY":269.8008,"EPHEMERIS_TYPE":0,"CLASSIFICATION_TYPE":"U","NORAD_CAT_ID":54172,"ELEMENT_SET_NO":999,"REV_AT_EPOCH":15261,"BSTAR":4.7293e-5,"MEAN_MOTION_DOT":4.65e-6,"MEAN_MOTION_DDOT":0},{"OBJECT_NAME":"STARLINK-5242","OBJECT_ID":"2022-141S","EPOCH":"2025-08-01T13:47:16.412064","MEAN_MOTION":15.08850463,"ECCENTRICITY":0.0001097,"INCLINATION":53.2169,"RA_OF_ASC_NODE":271.8384,"ARG_OF_PERICENTER":77.6552,"MEAN_ANOMALY":282.4563,"EPHEMERIS_TYPE":0,"CLASSIFICATION_TYPE":"U","NORAD_CAT_ID":54173,"ELEMENT_SET_NO":999,"REV_AT_EPOCH":15263,"BSTAR":7.4445e-5,"MEAN_MOTION_DOT":8.97e-6,"MEAN_MOTION_DDOT":0},{"OBJECT_NAME":"STARLINK-5248","OBJECT_ID":"2022-141T","EPOCH":"2025-08-01T09:11:05.474400","MEAN_MOTION":15.08833022,"ECCENTRICITY":0.0001101,"INCLINATION":53.2158,"RA_OF_ASC_NODE":217.8595,"ARG_OF_PERICENTER":73.9298,"MEAN_ANOMALY":286.1816,"EPHEMERIS_TYPE":0,"CLASSIFICATION_TYPE":"U","NORAD_CAT_ID":54174,"ELEMENT_SET_NO":999,"REV_AT_EPOCH":15337,"BSTAR":-2.5721e-5,"MEAN_MOTION_DOT":-6.97e-6,"MEAN_MOTION_DDOT":0},{"OBJECT_NAME":"STARLINK-5256","OBJECT_ID":"2022-141U","EPOCH":"2025-08-01T13:10:15.417120","MEAN_MOTION":15.08839532,"ECCENTRICITY":0.000128,"INCLINATION":53.2169,"RA_OF_ASC_NODE":272.3866,"ARG_OF_PERICENTER":76.062,"MEAN_ANOMALY":284.0514,"EPHEMERIS_TYPE":0,"CLASSIFICATION_TYPE":"U","NORAD_CAT_ID":54175,"ELEMENT_SET_NO":999,"REV_AT_EPOCH":15262,"BSTAR":4.4895e-5,"MEAN_MOTION_DOT":4.27e-6,"MEAN_MOTION_DDOT":0},{"OBJECT_NAME":"STARLINK-5154","OBJECT_ID":"2022-141V","EPOCH":"2025-08-01T09:38:16.162080","MEAN_MOTION":15.08832063,"ECCENTRICITY":0.0001072,"INCLINATION":53.2177,"RA_OF_ASC_NODE":272.8897,"ARG_OF_PERICENTER":92.5824,"MEAN_ANOMALY":267.5291,"EPHEMERIS_TYPE":0,"CLASSIFICATION_TYPE":"U","NORAD_CAT_ID":54176,"ELEMENT_SET_NO":999,"REV_AT_EPOCH":15260,"BSTAR":3.1938e-5,"MEAN_MOTION_DOT":2.2e-6,"MEAN_MOTION_DDOT":0},{"OBJECT_NAME":"STARLINK-5186","OBJECT_ID":"2022-141W","EPOCH":"2025-08-01T08:13:29.756928","MEAN_MOTION":15.08835534,"ECCENTRICITY":0.0001297,"INCLINATION":53.2176,"RA_OF_ASC_NODE":273.2325,"ARG_OF_PERICENTER":91.8041,"MEAN_ANOMALY":268.31,"EPHEMERIS_TYPE":0,"CLASSIFICATION_TYPE":"U","NORAD_CAT_ID":54177,"ELEMENT_SET_NO":999,"REV_AT_EPOCH":15259,"BSTAR":-7.7341e-6,"MEAN_MOTION_DOT":-4.11e-6,"MEAN_MOTION_DDOT":0},{"OBJECT_NAME":"STARLINK-5164","OBJECT_ID":"2022-141X","EPOCH":"2025-08-01T14:03:11.181312","MEAN_MOTION":15.08838442,"ECCENTRICITY":9.29e-5,"INCLINATION":53.217,"RA_OF_ASC_NODE":271.884,"ARG_OF_PERICENTER":79.356,"MEAN_ANOMALY":280.7537,"EPHEMERIS_TYPE":0,"CLASSIFICATION_TYPE":"U","NORAD_CAT_ID":54178,"ELEMENT_SET_NO":999,"REV_AT_EPOCH":15263,"BSTAR":2.8285e-5,"MEAN_MOTION_DOT":1.62e-6,"MEAN_MOTION_DDOT":0},{"OBJECT_NAME":"STARLINK-5122","OBJECT_ID":"2022-141Y","EPOCH":"2025-08-01T19:15:53.133120","MEAN_MOTION":15.08836089,"ECCENTRICITY":0.0001326,"INCLINATION":53.2169,"RA_OF_ASC_NODE":271.127,"ARG_OF_PERICENTER":105.941,"MEAN_ANOMALY":254.1728,"EPHEMERIS_TYPE":0,"CLASSIFICATION_TYPE":"U","NORAD_CAT_ID":54179,"ELEMENT_SET_NO":999,"REV_AT_EPOCH":15289,"BSTAR":4.4207e-5,"MEAN_MOTION_DOT":4.16e-6,"MEAN_MOTION_DDOT":0},{"OBJECT_NAME":"STARLINK-5228","OBJECT_ID":"2022-141Z","EPOCH":"2025-08-01T13:57:53.166240","MEAN_MOTION":15.0883677,"ECCENTRICITY":0.0001149,"INCLINATION":53.2166,"RA_OF_ASC_NODE":271.8808,"ARG_OF_PERICENTER":88.4558,"MEAN_ANOMALY":271.6566,"EPHEMERIS_TYPE":0,"CLASSIFICATION_TYPE":"U","NORAD_CAT_ID":54180,"ELEMENT_SET_NO":999,"REV_AT_EPOCH":15263,"BSTAR":1.4443e-5,"MEAN_MOTION_DOT":-5.8e-7,"MEAN_MOTION_DDOT":0},{"OBJECT_NAME":"STARLINK-5227","OBJECT_ID":"2022-141AA","EPOCH":"2025-08-01T11:03:02.174976","MEAN_MOTION":15.0882531,"ECCENTRICITY":0.0001749,"INCLINATION":53.2171,"RA_OF_ASC_NODE":272.5448,"ARG_OF_PERICENTER":99.1406,"MEAN_ANOMALY":260.9784,"EPHEMERIS_TYPE":0,"CLASSIFICATION_TYPE":"U","NORAD_CAT_ID":54181,"ELEMENT_SET_NO":999,"REV_AT_EPOCH":15261,"BSTAR":-0.00013882,"MEAN_MOTION_DOT":-2.496e-5,"MEAN_MOTION_DDOT":0},{"OBJECT_NAME":"STARLINK-5231","OBJECT_ID":"2022-141AB","EPOCH":"2025-08-01T08:54:27.676224","MEAN_MOTION":15.08868785,"ECCENTRICITY":8.66e-5,"INCLINATION":53.2162,"RA_OF_ASC_NODE":242.807,"ARG_OF_PERICENTER":77.9485,"MEAN_ANOMALY":282.1604,"EPHEMERIS_TYPE":0,"CLASSIFICATION_TYPE":"U","NORAD_CAT_ID":54182,"ELEMENT_SET_NO":999,"REV_AT_EPOCH":15302,"BSTAR":0.00040454,"MEAN_MOTION_DOT":6.161e-5,"MEAN_MOTION_DDOT":0}]
